STARLINK-1573           
1 46061U 20055AL  26068.50063041  .00000415  00000+0  26132-4 0  9997
2 46061  53.1594 114.7412 0001601  89.6069 270.5115 15.30196401309049
2025-313BD              
1 67299U 25313BD  26068.62968741  .00081010  00000+0  27634-2 0  9995
2 67299  97.3970 145.2850 0007287 333.4514  26.6352 15.30002360 10838
